ORBCOMM FM24 [-]        
1 25478U 98053D   24002.09187296  .00001179  00000+0  45869-3 0  9993
2 25478  45.0084 265.6827 0001725  39.3343 320.7630 14.35075813321212
ORBCOMM FM25 [-]        
1 25479U 98053E   24001.84774730  .00001107  00000+0  43376-3 0  9993
2 25479  45.0081 265.0701 0003461  83.8460 276.2782 14.35057723321198
ORBCOMM FM26 [-]        
1 25480U 98053F   24002.08656264  .00000956  00000+0  38492-3 0  9997
2 25480  45.0075 257.5590 0005121 116.0225 244.1150 14.34583679321273
ORBCOMM FM27 [+]        
1 25481U 98053G   24001.83389147  .00001111  00000+0  43557-3 0  9995
2 25481  45.0065 265.3953 0001143 332.1750  27.9036 14.35034281321122
ORBCOMM FM28 [-]        
1 25482U 98053H   24002.00089345  .00000891  00000+0  35563-3 0  9995
2 25482  45.0042 203.5268 0004138 144.8720 215.2401 14.35499297321987
ORBCOMM FM30 [-]        
1 25980U 99065A   24001.36475827  .00001281  00000+0  49732-3 0  9991
2 25980  45.0327  86.3630 0007754 224.8589 135.1632 14.34719263257863
ORBCOMM FM32 [+]        
1 25982U 99065C   24001.35847646  .00001198  00000+0  47827-3 0  9994
2 25982  45.0163  93.0422 0007281 241.9689 118.0422 14.33680959258061
